{
  "type": "FeatureCollection",
  "features": [
    {
      "type": "Feature",
      "properties": {
        "norad_id": 64751,
        "name": "PROGRESS-MS 31",
        "group": "stations",
        "lat": -26.827849058456415,
        "lon": 125.61972371724164,
        "alt_km": 421.6537355171786,
        "timestamp": "2025-12-11T08:58:25.875291+00:00",
        "meta_object_name": "PROGRESS-MS 31",
        "meta_object_id": "2025-146A",
        "meta_epoch": "2025-12-10T22:17:24.112320",
        "meta_mean_motion": 15.49489378,
        "meta_eccentricity": 0.00033509,
        "meta_inclination": 51.6309,
        "meta_ra_of_asc_node": 151.4463,
        "meta_arg_of_pericenter": 232.8214,
        "meta_mean_anomaly": 127.2469,
        "meta_ephemeris_type": 0,
        "meta_classification_type": "U",
        "meta_norad_cat_id": 64751,
        "meta_element_set_no": 999,
        "meta_rev_at_epoch": 675,
        "meta_bstar": 0.00026508679,
        "meta_mean_motion_dot": 0.00014434,
        "meta_mean_motion_ddot": 0,
        "tle_line1": "1 64751U 25146A   25344.92875130  .00014434  00000+0  26509-3 0  9994",
        "tle_line2": "2 64751  51.6309 151.4463 0003350 232.8214 127.2469 15.49489378  6753"
      },
      "geometry": {
        "type": "Point",
        "coordinates": [
          125.61972371724164,
          -26.827849058456415
        ]
      }
    },
    {
      "type": "Feature",
      "properties": {
        "norad_id": 64786,
        "name": "TIANZHOU-9",
        "group": "stations",
        "lat": 16.079035779978426,
        "lon": 44.04793097814696,
        "alt_km": 381.7201651912519,
        "timestamp": "2025-12-11T08:58:25.875302+00:00",
        "meta_object_name": "TIANZHOU-9",
        "meta_object_id": "2025-149A",
        "meta_epoch": "2025-12-10T20:34:09.975360",
        "meta_mean_motion": 15.59054125,
        "meta_eccentricity": 0.0008705,
        "meta_inclination": 41.4684,
        "meta_ra_of_asc_node": 28.1364,
        "meta_arg_of_pericenter": 14.9689,
        "meta_mean_anomaly": 345.1405,
        "meta_ephemeris_type": 0,
        "meta_classification_type": "U",
        "meta_norad_cat_id": 64786,
        "meta_element_set_no": 999,
        "meta_rev_at_epoch": 25530,
        "meta_bstar": 0.00042990708,
        "meta_mean_motion_dot": 0.0003436,
        "meta_mean_motion_ddot": 0,
        "tle_line1": "1 64786U 25149A   25344.85705990  .00034360  00000+0  42991-3 0  9996",
        "tle_line2": "2 64786  41.4684  28.1364 0008705  14.9689 345.1405 15.59054125255305"
      },
      "geometry": {
        "type": "Point",
        "coordinates": [
          44.04793097814696,
          16.079035779978426
        ]
      }
    },
    {
      "type": "Feature",
      "properties": {
        "norad_id": 65077,
        "name": "CREW DRAGON 11",
        "group": "stations",
        "lat": -26.827848085072702,
        "lon": 125.61972477304774,
        "alt_km": 421.65373550187087,
        "timestamp": "2025-12-11T08:58:25.875312+00:00",
        "meta_object_name": "CREW DRAGON 11",
        "meta_object_id": "2025-166A",
        "meta_epoch": "2025-12-10T22:17:24.112320",
        "meta_mean_motion": 15.49489378,
        "meta_eccentricity": 0.00033509,
        "meta_inclination": 51.6309,
        "meta_ra_of_asc_node": 151.4463,
        "meta_arg_of_pericenter": 232.8214,
        "meta_mean_anomaly": 127.2469,
        "meta_ephemeris_type": 0,
        "meta_classification_type": "U",
        "meta_norad_cat_id": 65077,
        "meta_element_set_no": 999,
        "meta_rev_at_epoch": 214,
        "meta_bstar": 0.00026508679,
        "meta_mean_motion_dot": 0.00014434,
        "meta_mean_motion_ddot": 0,
        "tle_line1": "1 65077U 25166A   25344.92875130  .00014434  00000+0  26509-3 0  9998",
        "tle_line2": "2 65077  51.6309 151.4463 0003350 232.8214 127.2469 15.49489378  2144"
      },
      "geometry": {
        "type": "Point",
        "coordinates": [
          125.61972477304774,
          -26.827848085072702
        ]
      }
    },
    {
      "type": "Feature",
      "properties": {
        "norad_id": 65304,
        "name": "DRAGON CRS-33",
        "group": "stations",
        "lat": -26.827847621556636,
        "lon": 125.61972527581257,
        "alt_km": 421.65373549458127,
        "timestamp": "2025-12-11T08:58:25.875322+00:00",
        "meta_object_name": "DRAGON CRS-33",
        "meta_object_id": "2025-186A",
        "meta_epoch": "2025-12-10T22:17:24.112320",
        "meta_mean_motion": 15.49489378,
        "meta_eccentricity": 0.00033509,
        "meta_inclination": 51.6309,
        "meta_ra_of_asc_node": 151.4463,
        "meta_arg_of_pericenter": 232.8214,
        "meta_mean_anomaly": 127.2469,
        "meta_ephemeris_type": 0,
        "meta_classification_type": "U",
        "meta_norad_cat_id": 65304,
        "meta_element_set_no": 999,
        "meta_rev_at_epoch": 11,
        "meta_bstar": 0.00026508679,
        "meta_mean_motion_dot": 0.00014434,
        "meta_mean_motion_ddot": 0,
        "tle_line1": "1 65304U 25186A   25344.92875130  .00014434  00000+0  26509-3 0  9993",
        "tle_line2": "2 65304  51.6309 151.4463 0003350 232.8214 127.2469 15.49489378   112"
      },
      "geometry": {
        "type": "Point",
        "coordinates": [
          125.61972527581257,
          -26.827847621556636
        ]
      }
    },
    {
      "type": "Feature",
      "properties": {
        "norad_id": 65586,
        "name": "PROGRESS-MS 32",
        "group": "stations",
        "lat": -26.827847111688122,
        "lon": 125.61972582885477,
        "alt_km": 421.65373548656044,
        "timestamp": "2025-12-11T08:58:25.875333+00:00",
        "meta_object_name": "PROGRESS-MS 32",
        "meta_object_id": "2025-204A",
        "meta_epoch": "2025-12-10T22:17:24.112320",
        "meta_mean_motion": 15.49489378,
        "meta_eccentricity": 0.00033509,
        "meta_inclination": 51.6309,
        "meta_ra_of_asc_node": 151.4463,
        "meta_arg_of_pericenter": 232.8214,
        "meta_mean_anomaly": 127.2469,
        "meta_ephemeris_type": 0,
        "meta_classification_type": "U",
        "meta_norad_cat_id": 65586,
        "meta_element_set_no": 999,
        "meta_rev_at_epoch": 27,
        "meta_bstar": 0.00026508679,
        "meta_mean_motion_dot": 0.00014434,
        "meta_mean_motion_ddot": 0,
        "tle_line1": "1 65586U 25204A   25344.92875130  .00014434  00000+0  26509-3 0  9996",
        "tle_line2": "2 65586  51.6309 151.4463 0003350 232.8214 127.2469 15.49489378   271"
      },
      "geometry": {
        "type": "Point",
        "coordinates": [
          125.61972582885477,
          -26.827847111688122
        ]
      }
    },
    {
      "type": "Feature",
      "properties": {
        "norad_id": 65616,
        "name": "CYGNUS NG-23",
        "group": "stations",
        "lat": -26.82784655546897,
        "lon": 125.6197264321724,
        "alt_km": 421.65373547781746,
        "timestamp": "2025-12-11T08:58:25.875345+00:00",
        "meta_object_name": "CYGNUS NG-23",
        "meta_object_id": "2025-208A",
        "meta_epoch": "2025-12-10T22:17:24.112320",
        "meta_mean_motion": 15.49489378,
        "meta_eccentricity": 0.00033509,
        "meta_inclination": 51.6309,
        "meta_ra_of_asc_node": 151.4463,
        "meta_arg_of_pericenter": 232.8214,
        "meta_mean_anomaly": 127.2469,
        "meta_ephemeris_type": 0,
        "meta_classification_type": "U",
        "meta_norad_cat_id": 65616,
        "meta_element_set_no": 999,
        "meta_rev_at_epoch": 22,
        "meta_bstar": 0.00026508679,
        "meta_mean_motion_dot": 0.00014434,
        "meta_mean_motion_ddot": 0,
        "tle_line1": "1 65616U 25208A   25344.92875130  .00014434  00000+0  26509-3 0  9994",
        "tle_line2": "2 65616  51.6309 151.4463 0003350 232.8214 127.2469 15.49489378   220"
      },
      "geometry": {
        "type": "Point",
        "coordinates": [
          125.6197264321724,
          -26.82784655546897
        ]
      }
    },
    {
      "type": "Feature",
      "properties": {
        "norad_id": 65729,
        "name": "DRAGONFLY",
        "group": "stations",
        "lat": -11.096577930700446,
        "lon": -28.302821676338233,
        "alt_km": 356.04804813500505,
        "timestamp": "2025-12-11T08:58:25.875355+00:00",
        "meta_object_name": "DRAGONFLY",
        "meta_object_id": "1998-067XH",
        "meta_epoch": "2025-12-11T03:34:16.542048",
        "meta_mean_motion": 15.71180147,
        "meta_eccentricity": 0.0006575,
        "meta_inclination": 51.6246,
        "meta_ra_of_asc_node": 143.9077,
        "meta_arg_of_pericenter": 266.7325,
        "meta_mean_anomaly": 93.2921,
        "meta_ephemeris_type": 0,
        "meta_classification_type": "U",
        "meta_norad_cat_id": 65729,
        "meta_element_set_no": 999,
        "meta_rev_at_epoch": 1291,
        "meta_bstar": 0.0016713,
        "meta_mean_motion_dot": 0.00221047,
        "meta_mean_motion_ddot": 0,
        "tle_line1": "1 65729U 98067XH  25345.14880257  .00221047  00000+0  16713-2 0  9998",
        "tle_line2": "2 65729  51.6246 143.9077 0006575 266.7325  93.2921 15.71180147 12914"
      },
      "geometry": {
        "type": "Point",
        "coordinates": [
          -28.302821676338233,
          -11.096577930700446
        ]
      }
    }
  ]
}